{
  "type": "FeatureCollection",
  "features": [
    {
      "type": "Feature",
      "properties": {
        "norad_id": 41866,
        "name": "GOES 16",
        "group": "weather",
        "lat": -0.009443781297615148,
        "lon": 73.6367834673817,
        "alt_km": 35799.48791183257,
        "timestamp": "2025-12-22T05:49:03.124739+00:00",
        "meta_object_name": "GOES 16",
        "meta_object_id": "2016-071A",
        "meta_epoch": "2025-12-21T16:07:23.443968",
        "meta_mean_motion": 1.0026909,
        "meta_eccentricity": 0.0003023,
        "meta_inclination": 0.0703,
        "meta_ra_of_asc_node": 104.1031,
        "meta_arg_of_pericenter": 158.6083,
        "meta_mean_anomaly": 324.955,
        "meta_ephemeris_type": 0,
        "meta_classification_type": "U",
        "meta_norad_cat_id": 41866,
        "meta_element_set_no": 999,
        "meta_rev_at_epoch": 3332,
        "meta_bstar": 0,
        "meta_mean_motion_dot": -6.8e-07,
        "meta_mean_motion_ddot": 0,
        "tle_line1": "1 41866U 16071A   25355.67179912 -.00000068  00000+0  00000+0 0  9995",
        "tle_line2": "2 41866   0.0703 104.1031 0003023 158.6083 324.9550  1.00269090 33322"
      },
      "geometry": {
        "type": "Point",
        "coordinates": [
          73.6367834673817,
          -0.009443781297615148
        ]
      }
    },
    {
      "type": "Feature",
      "properties": {
        "norad_id": 41882,
        "name": "FENGYUN 4A",
        "group": "weather",
        "lat": -1.2212388803011867,
        "lon": -57.96487808632565,
        "alt_km": 35783.65942395733,
        "timestamp": "2025-12-22T05:49:03.124751+00:00",
        "meta_object_name": "FENGYUN 4A",
        "meta_object_id": "2016-077A",
        "meta_epoch": "2025-12-19T13:51:06.687072",
        "meta_mean_motion": 1.00266581,
        "meta_eccentricity": 0.0004506,
        "meta_inclination": 1.866,
        "meta_ra_of_asc_node": 82.3247,
        "meta_arg_of_pericenter": 142.8816,
        "meta_mean_anomaly": 194.7423,
        "meta_ephemeris_type": 0,
        "meta_classification_type": "U",
        "meta_norad_cat_id": 41882,
        "meta_element_set_no": 999,
        "meta_rev_at_epoch": 3312,
        "meta_bstar": 0,
        "meta_mean_motion_dot": -3.34e-06,
        "meta_mean_motion_ddot": 0,
        "tle_line1": "1 41882U 16077A   25353.57716073 -.00000334  00000+0  00000+0 0  9997",
        "tle_line2": "2 41882   1.8660  82.3247 0004506 142.8816 194.7423  1.00266581 33125"
      },
      "geometry": {
        "type": "Point",
        "coordinates": [
          -57.96487808632565,
          -1.2212388803011867
        ]
      }
    },
    {
      "type": "Feature",
      "properties": {
        "norad_id": 41884,
        "name": "CYGFM05",
        "group": "weather",
        "lat": 29.25965633541753,
        "lon": 111.7338925423558,
        "alt_km": 423.18270553239836,
        "timestamp": "2025-12-22T05:49:03.124764+00:00",
        "meta_object_name": "CYGFM05",
        "meta_object_id": "2016-078A",
        "meta_epoch": "2025-12-21T09:10:24.136320",
        "meta_mean_motion": 15.47935175,
        "meta_eccentricity": 0.00108426,
        "meta_inclination": 34.9606,
        "meta_ra_of_asc_node": 350.6634,
        "meta_arg_of_pericenter": 258.3827,
        "meta_mean_anomaly": 101.5678,
        "meta_ephemeris_type": 0,
        "meta_classification_type": "U",
        "meta_norad_cat_id": 41884,
        "meta_element_set_no": 999,
        "meta_rev_at_epoch": 50110,
        "meta_bstar": 0.00031525581,
        "meta_mean_motion_dot": 0.00016973,
        "meta_mean_motion_ddot": 0,
        "tle_line1": "1 41884U 16078A   25355.38222380  .00016973  00000+0  31526-3 0  9990",
        "tle_line2": "2 41884  34.9606 350.6634 0010842 258.3827 101.5678 15.47935175501104"
      },
      "geometry": {
        "type": "Point",
        "coordinates": [
          111.7338925423558,
          29.25965633541753
        ]
      }
    },
    {
      "type": "Feature",
      "properties": {
        "norad_id": 41885,
        "name": "CYGFM04",
        "group": "weather",
        "lat": 34.74957929852803,
        "lon": 55.920553947218515,
        "alt_km": 414.4359603287712,
        "timestamp": "2025-12-22T05:49:03.124775+00:00",
        "meta_object_name": "CYGFM04",
        "meta_object_id": "2016-078B",
        "meta_epoch": "2025-12-21T07:46:40.834272",
        "meta_mean_motion": 15.50699821,
        "meta_eccentricity": 0.00096573,
        "meta_inclination": 34.9356,
        "meta_ra_of_asc_node": 325.5706,
        "meta_arg_of_pericenter": 282.921,
        "meta_mean_anomaly": 77.0434,
        "meta_ephemeris_type": 0,
        "meta_classification_type": "U",
        "meta_norad_cat_id": 41885,
        "meta_element_set_no": 999,
        "meta_rev_at_epoch": 50127,
        "meta_bstar": 0.00032492185,
        "meta_mean_motion_dot": 0.00019293,
        "meta_mean_motion_ddot": 0,
        "tle_line1": "1 41885U 16078B   25355.32408373  .00019293  00000+0  32492-3 0  9994",
        "tle_line2": "2 41885  34.9356 325.5706 0009657 282.9210  77.0434 15.50699821501273"
      },
      "geometry": {
        "type": "Point",
        "coordinates": [
          55.920553947218515,
          34.74957929852803
        ]
      }
    },
    {
      "type": "Feature",
      "properties": {
        "norad_id": 41886,
        "name": "CYGFM02",
        "group": "weather",
        "lat": 13.43902073198343,
        "lon": 117.7324506019171,
        "alt_km": 412.9947322428661,
        "timestamp": "2025-12-22T05:49:03.124786+00:00",
        "meta_object_name": "CYGFM02",
        "meta_object_id": "2016-078C",
        "meta_epoch": "2025-12-21T07:32:12.876288",
        "meta_mean_motion": 15.52104529,
        "meta_eccentricity": 0.00113308,
        "meta_inclination": 34.9445,
        "meta_ra_of_asc_node": 323.8504,
        "meta_arg_of_pericenter": 283.548,
        "meta_mean_anomaly": 76.3981,
        "meta_ephemeris_type": 0,
        "meta_classification_type": "U",
        "meta_norad_cat_id": 41886,
        "meta_element_set_no": 999,
        "meta_rev_at_epoch": 50140,
        "meta_bstar": 0.00033641994,
        "meta_mean_motion_dot": 0.00021032,
        "meta_mean_motion_ddot": 0,
        "tle_line1": "1 41886U 16078C   25355.31403792  .00021032  00000+0  33642-3 0  9996",
        "tle_line2": "2 41886  34.9445 323.8504 0011330 283.5480  76.3981 15.52104529501409"
      },
      "geometry": {
        "type": "Point",
        "coordinates": [
          117.7324506019171,
          13.43902073198343
        ]
      }
    },
    {
      "type": "Feature",
      "properties": {
        "norad_id": 41887,
        "name": "CYGFM01",
        "group": "weather",
        "lat": -3.287915444383114,
        "lon": 172.04388225915042,
        "alt_km": 418.20176523192004,
        "timestamp": "2025-12-22T05:49:03.124796+00:00",
        "meta_object_name": "CYGFM01",
        "meta_object_id": "2016-078D",
        "meta_epoch": "2025-12-21T16:38:27.575808",
        "meta_mean_motion": 15.48534747,
        "meta_eccentricity": 0.0010516,
        "meta_inclination": 34.9438,
        "meta_ra_of_asc_node": 350.9164,
        "meta_arg_of_pericenter": 253.8034,
        "meta_mean_anomaly": 106.1531,
        "meta_ephemeris_type": 0,
        "meta_classification_type": "U",
        "meta_norad_cat_id": 41887,
        "meta_element_set_no": 999,
        "meta_rev_at_epoch": 50109,
        "meta_bstar": 0.00032135,
        "meta_mean_motion_dot": 0.00017671,
        "meta_mean_motion_ddot": 0,
        "tle_line1": "1 41887U 16078D   25355.69337472  .00017671  00000+0  32135-3 0  9999",
        "tle_line2": "2 41887  34.9438 350.9164 0010516 253.8034 106.1531 15.48534747501097"
      },
      "geometry": {
        "type": "Point",
        "coordinates": [
          172.04388225915042,
          -3.287915444383114
        ]
      }
    },
    {
      "type": "Feature",
      "properties": {
        "norad_id": 41888,
        "name": "CYGFM08",
        "group": "weather",
        "lat": -34.71068267401294,
        "lon": -112.52533908216441,
        "alt_km": 411.39723728901663,
        "timestamp": "2025-12-22T05:49:03.124808+00:00",
        "meta_object_name": "CYGFM08",
        "meta_object_id": "2016-078E",
        "meta_epoch": "2025-12-21T06:59:16.414080",
        "meta_mean_motion": 15.49748097,
        "meta_eccentricity": 0.0011942,
        "meta_inclination": 34.9467,
        "meta_ra_of_asc_node": 336.439,
        "meta_arg_of_pericenter": 273.0676,
        "meta_mean_anomaly": 86.868,
        "meta_ephemeris_type": 0,
        "meta_classification_type": "U",
        "meta_norad_cat_id": 41888,
        "meta_element_set_no": 999,
        "meta_rev_at_epoch": 50126,
        "meta_bstar": 0.00032362,
        "meta_mean_motion_dot": 0.00018591,
        "meta_mean_motion_ddot": 0,
        "tle_line1": "1 41888U 16078E   25355.29116220  .00018591  00000+0  32362-3 0  9996",
        "tle_line2": "2 41888  34.9467 336.4390 0011942 273.0676  86.8680 15.49748097501264"
      },
      "geometry": {
        "type": "Point",
        "coordinates": [
          -112.52533908216441,
          -34.71068267401294
        ]
      }
    }
  ]
}